#aV2023  1  8  0  0  0.00000000     288 DD+AD WGS84 FIT  NGA
## 2244      0.00000000   300.00000000 59952 0.0000000000000
+   31     1  2  3  4  5  6  7  8  9 10 11 12 13 14 15 16 17
+         18 19 20 21 22 23 24 25 26 27 29 30 31 32  0  0  0
+          0  0  0  0  0  0  0  0  0  0  0  0  0  0  0  0  0
+          0  0  0  0  0  0  0  0  0  0  0  0  0  0  0  0  0
+          0  0  0  0  0  0  0  0  0  0  0  0  0  0  0  0  0
++         2  2  2  2  2  2  2  2  2  2  2  2  2  2  2  2  2
++         2  2  2  2  2  2  2  2  2  2  2  2  2  2  0  0  0
++         0  0  0  0  0  0  0  0  0  0  0  0  0  0  0  0  0
++         0  0  0  0  0  0  0  0  0  0  0  0  0  0  0  0  0
++         0  0  0  0  0  0  0  0  0  0  0  0  0  0  0  0  0
%c cc cc ccc ccc cccc cccc cccc cccc ccccc ccccc ccccc ccccc
%c cc cc ccc ccc cccc cccc cccc cccc ccccc ccccc ccccc ccccc
%f  0.0000000  0.000000000  0.00000000000  0.000000000000000
%f  0.0000000  0.000000000  0.00000000000  0.000000000000000
%i    0    0    0    0      0      0      0      0         0
%i    0    0    0    0      0      0      0      0         0
/*      NGA, ST. LOUIS,MO.                                  
/*   EPHEMERIS COMPUTED FROM 2 DAYS OF DATA                 
/*   EPOCHA v8 SMOOTHER                                     
/*   G2139 IERS2010 SATIGS SATAPC                           
*  2023  1  8 18 35  0.00000000
P  1  -7645.117017 -13638.119129 -21836.954795    226.934215                    
V  1  26676.978567  -3046.122127  -7209.877524     -0.048033                    
P  2  10995.118956  12673.922621  21174.697545   -628.482606                    
V  2 -24809.907577   5871.281504   9877.225472      0.022294                    
P  3 -11669.495312 -23020.853341  -6636.282112   -373.248425                    
V  3   6599.270774   5333.016697 -30558.806775      0.019040                    
P  4  -2687.486999 -20851.016166  16170.400690    -52.687814                    
V  4  10451.176641 -17815.918640 -21346.403332      0.075668                    
P  5     37.069320  19497.464120  17810.086149   -111.224706                    
V  5 -15892.952150 -16701.175934  18258.167285     -0.014465                    
P  6 -25568.323894   5883.547349   4492.348042    555.206795                    
V  6  -5756.495991  -1181.206311 -31626.182865      0.063545                    
P  7 -21345.674893  -7924.092838  14495.904218    261.994744                    
V  7  17170.864227  -3950.894383  23348.826340     -0.060504                    
P  8   5225.432333 -25070.083298  -6284.966089   -102.612447                    
V  8   5749.864719  -6329.452810  30639.138571     -0.018270                    
P  9 -11541.853753 -11191.313668  21056.337582   -239.869747                    
V  9  10704.092456 -24738.089933  -7299.357053      0.065045                    
P 10  18905.207541   4918.389839 -17973.080724    -19.588971                    
V 10  12898.753936  19084.538902  18310.258179     -0.015885                    
P 11 -17774.661470  12070.440211  15602.931262    -74.241745                    
V 11 -19883.692579   -551.229811 -22272.522736     -0.085338                    
P 12   8983.609223  23879.768044  -7848.146920   -325.721038                    
V 12  -7133.734483  -6771.299285 -29719.223851     -0.045373                    
P 13 -13066.818401  22992.543716   -883.511260    456.002476                    
V 13  -2791.325600   -606.148163  32045.283530      0.064650                    
P 14 -19524.626761  -7338.648649 -16507.396128    -53.283786                    
V 14 -10394.890225 -18299.227281  20301.682356      0.074083                    
P 15  -1708.845449  25567.319774  -6861.488800      2.913413                    
V 15  -5734.926010   6975.219378  29621.183480      0.032795                    
P 16   5217.121311 -16922.434542  19350.728006   -524.400769                    
V 16  14622.551901  20747.479533  14446.342629      0.010318                    
P 17 -16643.882348   2908.149945 -20080.780894    691.967128                    
V 17  10996.942038 -24033.484412 -12240.413428      0.026752                    
P 18  23120.764762   5773.002593  11882.064681    -91.158932                    
V 18 -14734.060966   3460.923532  26856.744953     -0.151050                    
P 19 -18289.282035  13071.658951 -14159.703172    261.457728                    
V 19   6935.700129 -16362.494648 -24719.091013      0.050860                    
P 20 -10018.325855  11902.832065  21559.466465    458.319691                    
V 20 -19792.794966 -18885.801303   1015.621504     -0.023993                    
P 21   1273.888076 -15255.491012 -21013.260142    153.299949                    
V 21  27812.544506  -4848.093953   5837.582646      0.003331                    
P 22  17253.235550 -16725.289143 -10692.819511    401.748643                    
V 22  -4315.184687  13866.656988 -27727.856598      0.079644                    
P 23  20063.192314  14602.945744  -9665.133376      1.921454                    
V 23   5966.583313  10861.099388  28654.920341      0.010486                    
P 24   3685.537048  15543.219740 -21569.389034    -21.194575                    
V 24 -26153.777377   5306.602060   -232.432645     -0.168291                    
P 25  16565.074459  20939.929745    565.024746    409.527870                    
V 25  -1555.930666   2551.007490 -31420.832233      0.034101                    
P 26  14553.778487  -6878.028834  21054.972446    239.974698                    
V 26  17250.914303  20830.133158  -4755.383329      0.006424                    
P 27  12712.251844 -22633.597378   4222.082646    132.018199                    
V 27    418.190896   6368.015933  31615.874949     -0.095651                    
P 29   8366.507016  14208.285318  20759.069294   -579.223091                    
V 29 -12872.163839  23097.452590 -10673.420000     -0.022642                    
P 30 -26502.825476    449.706149   3303.544874   -533.742754                    
V 30   3680.411396  -3780.963659  30637.086072      0.009025                    
P 31  25293.920530  -6590.538071   5765.587256   -205.739826                    
V 31   7661.777120   1831.750334 -30184.067141     -0.011144                    
P 32  17117.667009  -6354.695608 -19058.981836   -357.469803                    
V 32  -8064.868887  23298.253300 -15085.993744     -0.125492                    
EOF
